[{"OBJECT_NAME":"STARLINK-3709","OBJECT_ID":"2022-029Q","EPOCH":"2026-03-09T11:10:11.248608","MEAN_MOTION":15.08832354,"ECCENTRICITY":0.00013771,"INCLINATION":53.2169,"RA_OF_ASC_NODE":80.1297,"ARG_OF_PERICENTER":94.113,"MEAN_ANOMALY":266.002,"EPHEMERIS_TYPE":0,"CLASSIFICATION_TYPE":"U","NORAD_CAT_ID":52102,"ELEMENT_SET_NO":999,"REV_AT_EPOCH":22075,"BSTAR":-1.038612e-6,"MEAN_MOTION_DOT":-3.04e-6,"MEAN_MOTION_DDOT":0},{"OBJECT_NAME":"CZ-6A DEB","OBJECT_ID":"2024-140AAU","EPOCH":"2026-03-09T16:48:50.985504","MEAN_MOTION":14.99127941,"ECCENTRICITY":0.00591225,"INCLINATION":89.196,"RA_OF_ASC_NODE":296.0099,"ARG_OF_PERICENTER":104.8686,"MEAN_ANOMALY":255.9106,"EPHEMERIS_TYPE":0,"CLASSIFICATION_TYPE":"U","NORAD_CAT_ID":61486,"ELEMENT_SET_NO":999,"REV_AT_EPOCH":8015,"BSTAR":0.0049724997,"MEAN_MOTION_DOT":0.00063139,"MEAN_MOTION_DDOT":0}]
